SKYKRAFT-1A             
1 55054U 23001AX  26068.71064616  .00008177  00000+0  30069-3 0  9991
2 55054  97.3349 127.6290 0011277 121.5092 238.7251 15.28083228176529
STARLINK-31259          
1 59076U 24041C   26068.08745656 -.00001117  00000+0 -31083-4 0  9991
2 59076  43.0014 313.7493 0001253 278.0582  82.0128 15.27573060113130
